0 ARIANE 3 DEB *
1 17253U 86026E   13282.44826694  .00008250  00000-0  12279-1 0  1011
2 17253 006.0971 087.0645 6681299 141.7560 293.1695 02.98014303207305
0 ARIANE 3 DEB *
1 17253U 86026E   13283.11809976  .00009133  00000-0  13525-1 0  1027
2 17253 006.0989 086.6862 6681226 142.5051 291.7754 02.98035749207323
0 ARIANE 3 DEB *
1 17253U 86026E   13283.78784104  .00010416  00000-0  15258-1 0  1037
2 17253 006.1022 086.3002 6681597 143.2581 290.3528 02.98043978207341
0 ARIANE 3 DEB *
1 17253U 86026E   13285.12719619  .00008519  00000-0  12403-1 0  1058
2 17253 006.1067 085.5402 6681737 144.7543 287.4330 02.98072121207389
0 ARIANE 3 DEB *
1 17253U 86026E   13286.13154234  .00008854  00000-0  12960-1 0  1067
2 17253 006.1102 084.9690 6681676 145.8720 285.1758 02.98083640207413
0 ARIANE 3 DEB *
1 17253U 86026E   13287.13579005  .00009638  00000-0  14113-1 0  1079
2 17253 006.1142 084.3965 6681808 146.9971 282.8413 02.98103415207441
0 ARIANE 3 DEB *
1 17253U 86026E   13288.47457870  .00010352  00000-0  15208-1 0  1084
2 17253 006.1181 083.6389 6681815 148.4909 279.6242 02.98133602207481
0 ARIANE 3 DEB *
1 17253U 86026E   13289.14388528  .00009425  00000-0  13852-1 0  1095
2 17253 006.1208 083.2562 6681903 149.2432 277.9497 02.98156880207507
0 ARIANE 3 DEB *
1 17253U 86026E   13290.48224747  .00010632  00000-0  15572-1 0  1101
2 17253 006.1248 082.4988 6681968 150.7298 274.5208 02.98180584207547
0 ARIANE 3 DEB *
1 17253U 86026E   13290.48247878  .00010114  00000-0  14669-1 0  1102
2 17253 006.1046 082.5762 6681115 150.6574 274.7521 02.98173026206917
0 ARIANE 3 DEB *
1 17253U 86026E   13290.48260313  .00014638  00000-0  22104-1 0  1110
2 17253 006.0613 082.6724 6678935 150.4756 275.1454 02.98226910207542
0 ARIANE 3 DEB *
1 17253U 86026E   13291.15133110  .00009842  00000-0  14475-1 0  1112
2 17253 006.1265 082.1217 6681808 151.4788 272.7283 02.98197253207569
0 ARIANE 3 DEB *
1 17253U 86026E   13291.82031746  .00010234  00000-0  14944-1 0  1127
2 17253 006.1301 081.7363 6681968 152.2350 270.8799 02.98209850207588
0 ARIANE 3 DEB *
1 17253U 86026E   13293.49251274  .00010185  00000-0  14788-1 0  1134
2 17253 006.1353 080.7888 6681709 154.1037 266.1251 02.98251715207636
0 ARIANE 3 DEB *
1 17253U 86026E   13293.82688794  .00010644  00000-0  15354-1 0  1143
2 17253 006.1372 080.5969 6681886 154.4746 265.1546 02.98250700207641
0 ARIANE 3 DEB *
1 17253U 86026E   13294.49562991  .00009951  00000-0  14345-1 0  1167
2 17253 006.1384 080.2227 6681695 155.2220 263.1606 02.98269861207667
0 ARIANE 3 DEB *
1 17253U 86026E   13294.49563150  .00009233  00000-0  13296-1 0  1151
2 17253 006.1390 080.2200 6681775 155.2274 263.1482 02.98275985207669
0 ARIANE 3 DEB *
1 17253U 86026E   13295.49858111  .00009946  00000-0  14135-1 0  1172
2 17253 006.1432 079.6512 6681928 156.3468 260.0991 02.98289847207697
